[{"OBJECT_NAME":"TDRS 12","OBJECT_ID":"2014-004A","EPOCH":"2026-03-03T19:00:54.878112","MEAN_MOTION":1.00270286,"ECCENTRICITY":0.0003953,"INCLINATION":3.8752,"RA_OF_ASC_NODE":17.229,"ARG_OF_PERICENTER":267.2789,"MEAN_ANOMALY":121.3771,"EPHEMERIS_TYPE":0,"CLASSIFICATION_TYPE":"U","NORAD_CAT_ID":39504,"ELEMENT_SET_NO":999,"REV_AT_EPOCH":4322,"BSTAR":0,"MEAN_MOTION_DOT":-2.81e-6,"MEAN_MOTION_DDOT":0},{"OBJECT_NAME":"ABS-2","OBJECT_ID":"2014-006A","EPOCH":"2026-03-03T18:25:25.793760","MEAN_MOTION":1.00271912,"ECCENTRICITY":0.000305,"INCLINATION":0.0503,"RA_OF_ASC_NODE":274.2202,"ARG_OF_PERICENTER":62.0279,"MEAN_ANOMALY":176.5281,"EPHEMERIS_TYPE":0,"CLASSIFICATION_TYPE":"U","NORAD_CAT_ID":39508,"ELEMENT_SET_NO":999,"REV_AT_EPOCH":4422,"BSTAR":0,"MEAN_MOTION_DOT":-9.9e-7,"MEAN_MOTION_DDOT":0},{"OBJECT_NAME":"ATHENA-FIDUS","OBJECT_ID":"2014-006B","EPOCH":"2026-03-03T19:23:22.723296","MEAN_MOTION":1.0027145,"ECCENTRICITY":0.0001683,"INCLINATION":0.03,"RA_OF_ASC_NODE":111.1273,"ARG_OF_PERICENTER":247.8573,"MEAN_ANOMALY":131.2028,"EPHEMERIS_TYPE":0,"CLASSIFICATION_TYPE":"U","NORAD_CAT_ID":39509,"ELEMENT_SET_NO":999,"REV_AT_EPOCH":4403,"BSTAR":0,"MEAN_MOTION_DOT":1.4e-6,"MEAN_MOTION_DDOT":0},{"OBJECT_NAME":"TURKSAT 4A","OBJECT_ID":"2014-007A","EPOCH":"2026-03-03T15:59:12.291936","MEAN_MOTION":1.00270721,"ECCENTRICITY":0.0004279,"INCLINATION":0.0705,"RA_OF_ASC_NODE":290.929,"ARG_OF_PERICENTER":18.6946,"MEAN_ANOMALY":133.5725,"EPHEMERIS_TYPE":0,"CLASSIFICATION_TYPE":"U","NORAD_CAT_ID":39522,"ELEMENT_SET_NO":999,"REV_AT_EPOCH":4390,"BSTAR":0,"MEAN_MOTION_DOT":1.32e-6,"MEAN_MOTION_DDOT":0},{"OBJECT_NAME":"CZ-3C DEB","OBJECT_ID":"2010-057X","EPOCH":"2026-03-02T09:52:48.395136","MEAN_MOTION":2.25319484,"ECCENTRICITY":0.72352251,"INCLINATION":20.3246,"RA_OF_ASC_NODE":11.2909,"ARG_OF_PERICENTER":329.3274,"MEAN_ANOMALY":3.4832,"EPHEMERIS_TYPE":0,"CLASSIFICATION_TYPE":"U","NORAD_CAT_ID":39600,"ELEMENT_SET_NO":999,"REV_AT_EPOCH":10083,"BSTAR":0.0021508141,"MEAN_MOTION_DOT":4.45e-6,"MEAN_MOTION_DDOT":0},{"OBJECT_NAME":"EXPRESS-AT1","OBJECT_ID":"2014-010A","EPOCH":"2026-03-03T04:10:26.535072","MEAN_MOTION":1.00286556,"ECCENTRICITY":4.628e-5,"INCLINATION":0.0182,"RA_OF_ASC_NODE":234.3603,"ARG_OF_PERICENTER":182.8711,"MEAN_ANOMALY":222.3054,"EPHEMERIS_TYPE":0,"CLASSIFICATION_TYPE":"U","NORAD_CAT_ID":39612,"ELEMENT_SET_NO":999,"REV_AT_EPOCH":4375,"BSTAR":0,"MEAN_MOTION_DOT":6.1e-7,"MEAN_MOTION_DDOT":0},{"OBJECT_NAME":"EXPRESS-AT2","OBJECT_ID":"2014-010B","EPOCH":"2026-03-03T19:52:32.717280","MEAN_MOTION":1.00270363,"ECCENTRICITY":0.0001171,"INCLINATION":0.0217,"RA_OF_ASC_NODE":159.8822,"ARG_OF_PERICENTER":109.665,"MEAN_ANOMALY":330.0401,"EPHEMERIS_TYPE":0,"CLASSIFICATION_TYPE":"U","NORAD_CAT_ID":39613,"ELEMENT_SET_NO":999,"REV_AT_EPOCH":4344,"BSTAR":0,"MEAN_MOTION_DOT":0,"MEAN_MOTION_DDOT":0},{"OBJECT_NAME":"BREEZE-M R/B","OBJECT_ID":"2014-010C","EPOCH":"2026-03-03T02:53:14.167968","MEAN_MOTION":0.90579875,"ECCENTRICITY":0.0671899,"INCLINATION":10.6964,"RA_OF_ASC_NODE":60.1701,"ARG_OF_PERICENTER":49.6025,"MEAN_ANOMALY":316.201,"EPHEMERIS_TYPE":0,"CLASSIFICATION_TYPE":"U","NORAD_CAT_ID":39614,"ELEMENT_SET_NO":999,"REV_AT_EPOCH":3954,"BSTAR":0,"MEAN_MOTION_DOT":-1.78e-6,"MEAN_MOTION_DDOT":0},{"OBJECT_NAME":"AMAZONAS 4A","OBJECT_ID":"2014-011A","EPOCH":"2026-03-03T18:51:18.298944","MEAN_MOTION":1.00271325,"ECCENTRICITY":0.0002685,"INCLINATION":0.0587,"RA_OF_ASC_NODE":158.0529,"ARG_OF_PERICENTER":159.6113,"MEAN_ANOMALY":52.7007,"EPHEMERIS_TYPE":0,"CLASSIFICATION_TYPE":"U","NORAD_CAT_ID":39616,"ELEMENT_SET_NO":999,"REV_AT_EPOCH":4365,"BSTAR":0,"MEAN_MOTION_DOT":-2.66e-6,"MEAN_MOTION_DDOT":0},{"OBJECT_NAME":"ASTRA 5B","OBJECT_ID":"2014-011B","EPOCH":"2026-03-03T19:19:23.105856","MEAN_MOTION":1.00270604,"ECCENTRICITY":0.0004176,"INCLINATION":0.0923,"RA_OF_ASC_NODE":298.2159,"ARG_OF_PERICENTER":26.4659,"MEAN_ANOMALY":150.1995,"EPHEMERIS_TYPE":0,"CLASSIFICATION_TYPE":"U","NORAD_CAT_ID":39617,"ELEMENT_SET_NO":999,"REV_AT_EPOCH":4361,"BSTAR":0,"MEAN_MOTION_DOT":1.23e-6,"MEAN_MOTION_DDOT":0},{"OBJECT_NAME":"IRNSS-1B","OBJECT_ID":"2014-017A","EPOCH":"2026-03-03T13:10:18.111936","MEAN_MOTION":1.0027089,"ECCENTRICITY":0.0021171,"INCLINATION":29.1127,"RA_OF_ASC_NODE":242.2056,"ARG_OF_PERICENTER":179.2461,"MEAN_ANOMALY":352.3815,"EPHEMERIS_TYPE":0,"CLASSIFICATION_TYPE":"U","NORAD_CAT_ID":39635,"ELEMENT_SET_NO":999,"REV_AT_EPOCH":4373,"BSTAR":0,"MEAN_MOTION_DOT":1.02e-6,"MEAN_MOTION_DDOT":0},{"OBJECT_NAME":"CTS DEB [ARRAY COVER]","OBJECT_ID":"1976-004E","EPOCH":"2026-03-03T11:47:13.344288","MEAN_MOTION":1.00304143,"ECCENTRICITY":0.0033319,"INCLINATION":3.5042,"RA_OF_ASC_NODE":267.9697,"ARG_OF_PERICENTER":166.8396,"MEAN_ANOMALY":141.506,"EPHEMERIS_TYPE":0,"CLASSIFICATION_TYPE":"U","NORAD_CAT_ID":39688,"ELEMENT_SET_NO":999,"REV_AT_EPOCH":4171,"BSTAR":0,"MEAN_MOTION_DOT":-5.0e-8,"MEAN_MOTION_DDOT":0},{"OBJECT_NAME":"CTS DEB [ARRAY COVER]","OBJECT_ID":"1976-004F","EPOCH":"2026-02-27T12:53:13.243776","MEAN_MOTION":1.00281244,"ECCENTRICITY":0.01648217,"INCLINATION":3.548,"RA_OF_ASC_NODE":268.8015,"ARG_OF_PERICENTER":63.2161,"MEAN_ANOMALY":298.2693,"EPHEMERIS_TYPE":0,"CLASSIFICATION_TYPE":"U","NORAD_CAT_ID":39689,"ELEMENT_SET_NO":999,"REV_AT_EPOCH":6579,"BSTAR":0,"MEAN_MOTION_DOT":-2.98e-6,"MEAN_MOTION_DDOT":0},{"OBJECT_NAME":"LUCH-5V","OBJECT_ID":"2014-023A","EPOCH":"2026-03-03T13:58:32.695968","MEAN_MOTION":1.0027193,"ECCENTRICITY":0.0002985,"INCLINATION":4.8727,"RA_OF_ASC_NODE":70.7815,"ARG_OF_PERICENTER":276.235,"MEAN_ANOMALY":118.6917,"EPHEMERIS_TYPE":0,"CLASSIFICATION_TYPE":"U","NORAD_CAT_ID":39727,"ELEMENT_SET_NO":999,"REV_AT_EPOCH":4330,"BSTAR":0,"MEAN_MOTION_DOT":-2.8e-6,"MEAN_MOTION_DDOT":0},{"OBJECT_NAME":"KAZSAT-3","OBJECT_ID":"2014-023B","EPOCH":"2026-03-03T18:20:21.696000","MEAN_MOTION":1.00271765,"ECCENTRICITY":4.15e-5,"INCLINATION":0.0303,"RA_OF_ASC_NODE":57.3544,"ARG_OF_PERICENTER":357.2804,"MEAN_ANOMALY":80.4639,"EPHEMERIS_TYPE":0,"CLASSIFICATION_TYPE":"U","NORAD_CAT_ID":39728,"ELEMENT_SET_NO":999,"REV_AT_EPOCH":4140,"BSTAR":0,"MEAN_MOTION_DOT":4.7e-7,"MEAN_MOTION_DDOT":0},{"OBJECT_NAME":"BREEZE-M R/B","OBJECT_ID":"2014-023C","EPOCH":"2026-03-02T21:05:54.160512","MEAN_MOTION":0.92543814,"ECCENTRICITY":0.06456113,"INCLINATION":9.8557,"RA_OF_ASC_NODE":54.0475,"ARG_OF_PERICENTER":198.5832,"MEAN_ANOMALY":159.0953,"EPHEMERIS_TYPE":0,"CLASSIFICATION_TYPE":"U","NORAD_CAT_ID":39729,"ELEMENT_SET_NO":999,"REV_AT_EPOCH":3999,"BSTAR":0,"MEAN_MOTION_DOT":-1.82e-6,"MEAN_MOTION_DDOT":0},{"OBJECT_NAME":"EUTELSAT 3B","OBJECT_ID":"2014-030A","EPOCH":"2026-03-03T19:13:31.169280","MEAN_MOTION":1.00273864,"ECCENTRICITY":0.0001148,"INCLINATION":0.0656,"RA_OF_ASC_NODE":335.0159,"ARG_OF_PERICENTER":286.9001,"MEAN_ANOMALY":191.1148,"EPHEMERIS_TYPE":0,"CLASSIFICATION_TYPE":"U","NORAD_CAT_ID":39773,"ELEMENT_SET_NO":999,"REV_AT_EPOCH":4301,"BSTAR":0,"MEAN_MOTION_DOT":6.0e-8,"MEAN_MOTION_DDOT":0}]
